sat00735
1 00735U 64002C   20046.91611468 -.00000022  00000-0  10658-4 0  9994
2 00735  99.1178 212.4182 0017300 145.4951 214.7355 14.27820000916571
